{
  "type": "FeatureCollection",
  "features": [
    {
      "type": "Feature",
      "properties": {
        "norad_id": 43823,
        "name": "GEO-KOMPSAT-2A",
        "group": "weather",
        "lat": -0.000408963264720758,
        "lon": 102.22895736935712,
        "alt_km": 35786.671857926034,
        "timestamp": "2025-12-10T16:57:11.277812+00:00",
        "meta_object_name": "GEO-KOMPSAT-2A",
        "meta_object_id": "2018-100A",
        "meta_epoch": "2025-12-09T23:29:38.510880",
        "meta_mean_motion": 1.00269688,
        "meta_eccentricity": 1.166e-05,
        "meta_inclination": 0.0417,
        "meta_ra_of_asc_node": 144.825,
        "meta_arg_of_pericenter": 34.8694,
        "meta_mean_anomaly": 19.9414,
        "meta_ephemeris_type": 0,
        "meta_classification_type": "U",
        "meta_norad_cat_id": 43823,
        "meta_element_set_no": 999,
        "meta_rev_at_epoch": 2573,
        "meta_bstar": 0,
        "meta_mean_motion_dot": -3.41e-06,
        "meta_mean_motion_ddot": 0,
        "tle_line1": "1 43823U 18100A   25343.97891795 -.00000341  00000+0  00000+0 0  9999",
        "tle_line2": "2 43823   0.0417 144.8250 0000116  34.8694  19.9414  1.00269688 25735"
      },
      "geometry": {
        "type": "Point",
        "coordinates": [
          102.22895736935712,
          -0.000408963264720758
        ]
      }
    },
    {
      "type": "Feature",
      "properties": {
        "norad_id": 44387,
        "name": "METEOR-M2 2",
        "group": "weather",
        "lat": 34.34020389315901,
        "lon": -41.73364494188562,
        "alt_km": 808.9638217500124,
        "timestamp": "2025-12-10T16:57:11.277824+00:00",
        "meta_object_name": "METEOR-M2 2",
        "meta_object_id": "2019-038A",
        "meta_epoch": "2025-12-10T11:43:55.812288",
        "meta_mean_motion": 14.24290569,
        "meta_eccentricity": 0.000115,
        "meta_inclination": 98.8972,
        "meta_ra_of_asc_node": 324.1896,
        "meta_arg_of_pericenter": 151.6949,
        "meta_mean_anomaly": 208.4292,
        "meta_ephemeris_type": 0,
        "meta_classification_type": "U",
        "meta_norad_cat_id": 44387,
        "meta_element_set_no": 999,
        "meta_rev_at_epoch": 33443,
        "meta_bstar": 0.00021072,
        "meta_mean_motion_dot": 4.41e-06,
        "meta_mean_motion_ddot": 0,
        "tle_line1": "1 44387U 19038A   25344.48884042  .00000441  00000+0  21072-3 0  9996",
        "tle_line2": "2 44387  98.8972 324.1896 0001150 151.6949 208.4292 14.24290569334432"
      },
      "geometry": {
        "type": "Point",
        "coordinates": [
          -41.73364494188562,
          34.34020389315901
        ]
      }
    },
    {
      "type": "Feature",
      "properties": {
        "norad_id": 47719,
        "name": "ARKTIKA-M 1",
        "group": "weather",
        "lat": 56.920828346198135,
        "lon": 135.20474609794474,
        "alt_km": 33568.42352848769,
        "timestamp": "2025-12-10T16:57:11.277837+00:00",
        "meta_object_name": "ARKTIKA-M 1",
        "meta_object_id": "2021-016A",
        "meta_epoch": "2025-12-09T14:03:23.859648",
        "meta_mean_motion": 2.00631311,
        "meta_eccentricity": 0.7202538,
        "meta_inclination": 63.1769,
        "meta_ra_of_asc_node": 84.4506,
        "meta_arg_of_pericenter": 269.1116,
        "meta_mean_anomaly": 15.6235,
        "meta_ephemeris_type": 0,
        "meta_classification_type": "U",
        "meta_norad_cat_id": 47719,
        "meta_element_set_no": 999,
        "meta_rev_at_epoch": 3498,
        "meta_bstar": 0,
        "meta_mean_motion_dot": -6.1e-07,
        "meta_mean_motion_ddot": 0,
        "tle_line1": "1 47719U 21016A   25343.58569282 -.00000061  00000+0  00000+0 0  9996",
        "tle_line2": "2 47719  63.1769  84.4506 7202538 269.1116  15.6235  2.00631311 34985"
      },
      "geometry": {
        "type": "Point",
        "coordinates": [
          135.20474609794474,
          56.920828346198135
        ]
      }
    },
    {
      "type": "Feature",
      "properties": {
        "norad_id": 49008,
        "name": "FENGYUN 3E",
        "group": "weather",
        "lat": 26.059860855708322,
        "lon": -19.066856639901687,
        "alt_km": 824.8745278298629,
        "timestamp": "2025-12-10T16:57:11.277848+00:00",
        "meta_object_name": "FENGYUN 3E",
        "meta_object_id": "2021-062A",
        "meta_epoch": "2025-12-10T11:45:19.905408",
        "meta_mean_motion": 14.19880315,
        "meta_eccentricity": 5.95e-05,
        "meta_inclination": 98.7475,
        "meta_ra_of_asc_node": 345.0373,
        "meta_arg_of_pericenter": 286.3832,
        "meta_mean_anomaly": 73.7279,
        "meta_ephemeris_type": 0,
        "meta_classification_type": "U",
        "meta_norad_cat_id": 49008,
        "meta_element_set_no": 999,
        "meta_rev_at_epoch": 22980,
        "meta_bstar": 0.00018535,
        "meta_mean_motion_dot": 3.49e-06,
        "meta_mean_motion_ddot": 0,
        "tle_line1": "1 49008U 21062A   25344.48981372  .00000349  00000+0  18535-3 0  9992",
        "tle_line2": "2 49008  98.7475 345.0373 0000595 286.3832  73.7279 14.19880315229805"
      },
      "geometry": {
        "type": "Point",
        "coordinates": [
          -19.066856639901687,
          26.059860855708322
        ]
      }
    },
    {
      "type": "Feature",
      "properties": {
        "norad_id": 51850,
        "name": "GOES 18",
        "group": "weather",
        "lat": -0.012988307124619866,
        "lon": -163.0380127130919,
        "alt_km": 35787.019280034554,
        "timestamp": "2025-12-10T16:57:11.277860+00:00",
        "meta_object_name": "GOES 18",
        "meta_object_id": "2022-021A",
        "meta_epoch": "2025-12-10T10:20:14.970048",
        "meta_mean_motion": 1.00271533,
        "meta_eccentricity": 7.06e-05,
        "meta_inclination": 0.0393,
        "meta_ra_of_asc_node": 171.4531,
        "meta_arg_of_pericenter": 133.1445,
        "meta_mean_anomaly": 152.8693,
        "meta_ephemeris_type": 0,
        "meta_classification_type": "U",
        "meta_norad_cat_id": 51850,
        "meta_element_set_no": 999,
        "meta_rev_at_epoch": 470,
        "meta_bstar": 0,
        "meta_mean_motion_dot": 1.01e-06,
        "meta_mean_motion_ddot": 0,
        "tle_line1": "1 51850U 22021A   25344.43072882  .00000101  00000+0  00000+0 0  9998",
        "tle_line2": "2 51850   0.0393 171.4531 0000706 133.1445 152.8693  1.00271533  4709"
      },
      "geometry": {
        "type": "Point",
        "coordinates": [
          -163.0380127130919,
          -0.012988307124619866
        ]
      }
    },
    {
      "type": "Feature",
      "properties": {
        "norad_id": 54234,
        "name": "NOAA 21 (JPSS-2)",
        "group": "weather",
        "lat": 34.92397762857497,
        "lon": -85.13037074966108,
        "alt_km": 822.9466283114753,
        "timestamp": "2025-12-10T16:57:11.277873+00:00",
        "meta_object_name": "NOAA 21 (JPSS-2)",
        "meta_object_id": "2022-150A",
        "meta_epoch": "2025-12-10T11:42:43.272576",
        "meta_mean_motion": 14.19523297,
        "meta_eccentricity": 0.0002301,
        "meta_inclination": 98.7459,
        "meta_ra_of_asc_node": 280.8244,
        "meta_arg_of_pericenter": 42.3573,
        "meta_mean_anomaly": 317.778,
        "meta_ephemeris_type": 0,
        "meta_classification_type": "U",
        "meta_norad_cat_id": 54234,
        "meta_element_set_no": 999,
        "meta_rev_at_epoch": 15977,
        "meta_bstar": 0.00011014,
        "meta_mean_motion_dot": 1.88e-06,
        "meta_mean_motion_ddot": 0,
        "tle_line1": "1 54234U 22150A   25344.48800084  .00000188  00000+0  11014-3 0  9994",
        "tle_line2": "2 54234  98.7459 280.8244 0002301  42.3573 317.7780 14.19523297159775"
      },
      "geometry": {
        "type": "Point",
        "coordinates": [
          -85.13037074966108,
          34.92397762857497
        ]
      }
    },
    {
      "type": "Feature",
      "properties": {
        "norad_id": 54743,
        "name": "METEOSAT-12 (MTG-I1)",
        "group": "weather",
        "lat": -0.5222999577392032,
        "lon": -26.241663800626068,
        "alt_km": 35785.09311949949,
        "timestamp": "2025-12-10T16:57:11.277885+00:00",
        "meta_object_name": "METEOSAT-12 (MTG-I1)",
        "meta_object_id": "2022-170C",
        "meta_epoch": "2025-12-10T06:29:38.861088",
        "meta_mean_motion": 1.00267149,
        "meta_eccentricity": 0.0001835,
        "meta_inclination": 0.6844,
        "meta_ra_of_asc_node": 23.1553,
        "meta_arg_of_pericenter": 238.1267,
        "meta_mean_anomaly": 275.1497,
        "meta_ephemeris_type": 0,
        "meta_classification_type": "U",
        "meta_norad_cat_id": 54743,
        "meta_element_set_no": 999,
        "meta_rev_at_epoch": 1108,
        "meta_bstar": 0,
        "meta_mean_motion_dot": -4e-08,
        "meta_mean_motion_ddot": 0,
        "tle_line1": "1 54743U 22170C   25344.27058867 -.00000004  00000+0  00000+0 0  9999",
        "tle_line2": "2 54743   0.6844  23.1553 0001835 238.1267 275.1497  1.00267149 11087"
      },
      "geometry": {
        "type": "Point",
        "coordinates": [
          -26.241663800626068,
          -0.5222999577392032
        ]
      }
    }
  ]
}